CSS (TIANHE)            
1 48274U 21035A   24224.02722266  .00057384  00000+0  68600-3 0  9996
2 48274  41.4674 108.8310 0001409 244.6563 115.4130 15.60113630187678
